CUTE-1 (CO-55)          
1 27844U 03031E   26065.47274805  .00000476  00000+0  22533-3 0  9992
2 27844  98.6780  75.3114 0010574 120.8066 239.4155 14.24263129177059
CUBESAT XI-IV (CO-57)   
1 27848U 03031J   26065.48029571  .00000387  00000+0  18933-3 0  9995
2 27848  98.6809  75.1140 0010251 137.2488 222.9489 14.23558642176764
CUBESAT XI-V            
1 28895U 05043F   26065.38576487  .00002828  00000+0  45496-3 0  9991
2 28895  98.2825 218.9473 0014555 167.7954 192.3608 14.72302296 86628
CUTE-1.7+APD II (CO-65) 
1 32785U 08021C   26065.86096254  .00009307  00000+0  60286-3 0  9998
2 32785  97.8209  45.2818 0010038  28.8695 331.3086 15.08325396969763
CANX-2                  
1 32790U 08021H   26065.38229761  .00005762  00000+0  41261-3 0  9995
2 32790  97.8566  43.2786 0011906  40.4720 319.7389 15.04752779969346
SEEDS II (CO-66)        
1 32791U 08021J   26065.45257361  .00023871  00000+0  85099-3 0  9999
2 32791  97.7520  58.7481 0001969   9.7725 350.3551 15.28908488971576
SWISSCUBE               
1 35932U 09051B   26065.19296202  .00001759  00000+0  35869-3 0  9992
2 35932  98.4101 331.2738 0006841 163.0927 197.0503 14.62248300874106
BEESAT-1                
1 35933U 09051C   26065.28688956  .00001477  00000+0  30751-3 0  9996
2 35933  98.4031 331.2163 0005077 173.8074 186.3190 14.61523938874153
ITUPSAT1                
1 35935U 09051E   26065.25669722  .00001353  00000+0  29045-3 0  9992
2 35935  98.4119 330.4839 0007029 189.0317 171.0757 14.60259585873715
TISAT 1                 
1 36799U 10035E   26065.28518106  .00024887  00000+0  92801-3 0  9994
2 36799  98.0648   3.0990 0000785 167.2342 192.8915 15.27425128851979
AEROCUBE 4.5A           
1 38767U 12048K   26065.32967652  .00092540  00000+0  10298-2 0  9996
2 38767  64.6387  31.7521 0041379 212.9875 146.8688 15.61278615356461
STRAND-1                
1 39090U 13009E   26065.43123029  .00000517  00000+0  18843-3 0  9996
2 39090  98.3884 248.2040 0008826 171.2086 188.9258 14.37091567682305
BRITE-AUSTRIA           
1 39091U 13009F   26065.40048329  .00000341  00000+0  13070-3 0  9995
2 39091  98.3951 247.3903 0010174 180.8096 179.3076 14.36493935682299
NEE-01 PEGASO           
1 39151U 13018B   26065.81846633  .00004936  00000+0  47891-3 0  9993
2 39151  98.1050 206.7228 0013666 137.9559 222.2711 14.93068557695423
POPACS 2                
1 39269U 13055E   26065.28099983  .00030503  00000+0  53249-3 0  9996
2 39269  80.9888 261.7153 0431326 163.7266 197.8321 14.87594228647892
POPACS 3                
1 39270U 13055F   26064.75759894  .00018190  00000+0  43816-3 0  9990
2 39270  81.0058 341.1671 0561002  24.6518 338.0405 14.53821250623519
